{
  "type": "FeatureCollection",
  "features": [
    {
      "type": "Feature",
      "properties": {
        "norad_id": 2807,
        "name": "OPS 7218 (TRANSIT 16)",
        "group": "nnss",
        "lat": -42.321326365223854,
        "lon": 174.30036488571866,
        "alt_km": 1081.6735143679834,
        "timestamp": "2025-12-13T03:42:11.541435+00:00",
        "meta_object_name": "OPS 7218 (TRANSIT 16)",
        "meta_object_id": "1967-048A",
        "meta_epoch": "2025-12-12T07:06:24.458688",
        "meta_mean_motion": 13.50722028,
        "meta_eccentricity": 0.00219409,
        "meta_inclination": 89.6732,
        "meta_ra_of_asc_node": 354.0309,
        "meta_arg_of_pericenter": 115.2417,
        "meta_mean_anomaly": 256.2314,
        "meta_ephemeris_type": 0,
        "meta_classification_type": "U",
        "meta_norad_cat_id": 2807,
        "meta_element_set_no": 999,
        "meta_rev_at_epoch": 88270,
        "meta_bstar": 0.00019830933,
        "meta_mean_motion_dot": 1.38e-06,
        "meta_mean_motion_ddot": 0,
        "tle_line1": "1 02807U 67048A   25346.29611642  .00000138  00000+0  19831-3 0  9999",
        "tle_line2": "2 02807  89.6732 354.0309 0021940 115.2417 256.2314 13.50722028882703"
      },
      "geometry": {
        "type": "Point",
        "coordinates": [
          174.30036488571866,
          -42.321326365223854
        ]
      }
    },
    {
      "type": "Feature",
      "properties": {
        "norad_id": 2965,
        "name": "OPS 4947 (TRANSIT 17)",
        "group": "nnss",
        "lat": -69.03200803987554,
        "lon": 22.444446099392696,
        "alt_km": 1048.4666666831417,
        "timestamp": "2025-12-13T03:42:11.541457+00:00",
        "meta_object_name": "OPS 4947 (TRANSIT 17)",
        "meta_object_id": "1967-092A",
        "meta_epoch": "2025-12-12T03:31:23.931264",
        "meta_mean_motion": 13.53453258,
        "meta_eccentricity": 0.00461452,
        "meta_inclination": 89.2496,
        "meta_ra_of_asc_node": 24.4809,
        "meta_arg_of_pericenter": 236.2761,
        "meta_mean_anomaly": 188.2519,
        "meta_ephemeris_type": 0,
        "meta_classification_type": "U",
        "meta_norad_cat_id": 2965,
        "meta_element_set_no": 999,
        "meta_rev_at_epoch": 87089,
        "meta_bstar": 0.00024464432,
        "meta_mean_motion_dot": 1.76e-06,
        "meta_mean_motion_ddot": 0,
        "tle_line1": "1 02965U 67092A   25346.14680476  .00000176  00000+0  24464-3 0  9998",
        "tle_line2": "2 02965  89.2496  24.4809 0046145 236.2761 188.2519 13.53453258870891"
      },
      "geometry": {
        "type": "Point",
        "coordinates": [
          22.444446099392696,
          -69.03200803987554
        ]
      }
    },
    {
      "type": "Feature",
      "properties": {
        "norad_id": 3133,
        "name": "OPS 7034 (TRANSIT 18)",
        "group": "nnss",
        "lat": 76.05470756500141,
        "lon": -86.47244143558852,
        "alt_km": 1060.7740557759362,
        "timestamp": "2025-12-13T03:42:11.541471+00:00",
        "meta_object_name": "OPS 7034 (TRANSIT 18)",
        "meta_object_id": "1968-012A",
        "meta_epoch": "2025-12-12T06:34:09.567840",
        "meta_mean_motion": 13.51565481,
        "meta_eccentricity": 0.00737983,
        "meta_inclination": 90.0279,
        "meta_ra_of_asc_node": 273.6375,
        "meta_arg_of_pericenter": 170.4689,
        "meta_mean_anomaly": 304.4346,
        "meta_ephemeris_type": 0,
        "meta_classification_type": "U",
        "meta_norad_cat_id": 3133,
        "meta_element_set_no": 999,
        "meta_rev_at_epoch": 56912,
        "meta_bstar": 0.00023775975,
        "meta_mean_motion_dot": 1.67e-06,
        "meta_mean_motion_ddot": 0,
        "tle_line1": "1 03133U 68012A   25346.27372185  .00000167  00000+0  23776-3 0  9993",
        "tle_line2": "2 03133  90.0279 273.6375 0073798 170.4689 304.4346 13.51565481569127"
      },
      "geometry": {
        "type": "Point",
        "coordinates": [
          -86.47244143558852,
          76.05470756500141
        ]
      }
    },
    {
      "type": "Feature",
      "properties": {
        "norad_id": 4507,
        "name": "NNSS 19 (TRANSIT 19)",
        "group": "nnss",
        "lat": 49.691676337109385,
        "lon": -125.4723787803243,
        "alt_km": 1120.0258844151012,
        "timestamp": "2025-12-13T03:42:11.541484+00:00",
        "meta_object_name": "NNSS 19 (TRANSIT 19)",
        "meta_object_id": "1970-067A",
        "meta_epoch": "2025-12-12T06:07:57.878400",
        "meta_mean_motion": 13.51314917,
        "meta_eccentricity": 0.01705737,
        "meta_inclination": 90.0054,
        "meta_ra_of_asc_node": 234.5335,
        "meta_arg_of_pericenter": 294.7974,
        "meta_mean_anomaly": 63.5517,
        "meta_ephemeris_type": 0,
        "meta_classification_type": "U",
        "meta_norad_cat_id": 4507,
        "meta_element_set_no": 999,
        "meta_rev_at_epoch": 72215,
        "meta_bstar": 0.00022680025,
        "meta_mean_motion_dot": 1.69e-06,
        "meta_mean_motion_ddot": 0,
        "tle_line1": "1 04507U 70067A   25346.25553100  .00000169  00000+0  22680-3 0  9993",
        "tle_line2": "2 04507  90.0054 234.5335 0170573 294.7974  63.5517 13.51314917722155"
      },
      "geometry": {
        "type": "Point",
        "coordinates": [
          -125.4723787803243,
          49.691676337109385
        ]
      }
    },
    {
      "type": "Feature",
      "properties": {
        "norad_id": 6909,
        "name": "NNSS 20 (TRANSIT 20)",
        "group": "nnss",
        "lat": 27.512118060128106,
        "lon": 74.97293276312303,
        "alt_km": 962.3917045469525,
        "timestamp": "2025-12-13T03:42:11.541495+00:00",
        "meta_object_name": "NNSS 20 (TRANSIT 20)",
        "meta_object_id": "1973-081A",
        "meta_epoch": "2025-12-12T05:58:00.664320",
        "meta_mean_motion": 13.71433819,
        "meta_eccentricity": 0.01566294,
        "meta_inclination": 89.8562,
        "meta_ra_of_asc_node": 255.0615,
        "meta_arg_of_pericenter": 79.7701,
        "meta_mean_anomaly": 282.1083,
        "meta_ephemeris_type": 0,
        "meta_classification_type": "U",
        "meta_norad_cat_id": 6909,
        "meta_element_set_no": 999,
        "meta_rev_at_epoch": 80354,
        "meta_bstar": 0.00032807445,
        "meta_mean_motion_dot": 3.34e-06,
        "meta_mean_motion_ddot": 0,
        "tle_line1": "1 06909U 73081A   25346.24861880  .00000334  00000+0  32807-3 0  9992",
        "tle_line2": "2 06909  89.8562 255.0615 0156629  79.7701 282.1083 13.71433819803542"
      },
      "geometry": {
        "type": "Point",
        "coordinates": [
          74.97293276312303,
          27.512118060128106
        ]
      }
    },
    {
      "type": "Feature",
      "properties": {
        "norad_id": 10457,
        "name": "TRANSAT",
        "group": "nnss",
        "lat": 49.20781345471565,
        "lon": 78.99036351036963,
        "alt_km": 1085.9906954916205,
        "timestamp": "2025-12-13T03:42:11.541505+00:00",
        "meta_object_name": "TRANSAT",
        "meta_object_id": "1977-106A",
        "meta_epoch": "2025-12-12T06:21:52.302816",
        "meta_mean_motion": 13.48943521,
        "meta_eccentricity": 0.00253535,
        "meta_inclination": 89.6481,
        "meta_ra_of_asc_node": 78.6138,
        "meta_arg_of_pericenter": 190.8432,
        "meta_mean_anomaly": 223.4901,
        "meta_ephemeris_type": 0,
        "meta_classification_type": "U",
        "meta_norad_cat_id": 10457,
        "meta_element_set_no": 999,
        "meta_rev_at_epoch": 36737,
        "meta_bstar": 0.0001664154,
        "meta_mean_motion_dot": 1.15e-06,
        "meta_mean_motion_ddot": 0,
        "tle_line1": "1 10457U 77106A   25346.26518869  .00000115  00000+0  16642-3 0  9991",
        "tle_line2": "2 10457  89.6481  78.6138 0025353 190.8432 223.4901 13.48943521367370"
      },
      "geometry": {
        "type": "Point",
        "coordinates": [
          78.99036351036963,
          49.20781345471565
        ]
      }
    },
    {
      "type": "Feature",
      "properties": {
        "norad_id": 12458,
        "name": "NOVA 1",
        "group": "nnss",
        "lat": -87.21991003852371,
        "lon": 88.33642031217865,
        "alt_km": 1191.5315635172683,
        "timestamp": "2025-12-13T03:42:11.541516+00:00",
        "meta_object_name": "NOVA 1",
        "meta_object_id": "1981-044A",
        "meta_epoch": "2025-12-12T06:41:32.980416",
        "meta_mean_motion": 13.23278507,
        "meta_eccentricity": 0.00158964,
        "meta_inclination": 89.8524,
        "meta_ra_of_asc_node": 91.3916,
        "meta_arg_of_pericenter": 105.1318,
        "meta_mean_anomaly": 319.5804,
        "meta_ephemeris_type": 0,
        "meta_classification_type": "U",
        "meta_norad_cat_id": 12458,
        "meta_element_set_no": 999,
        "meta_rev_at_epoch": 15180,
        "meta_bstar": 0.00019758085,
        "meta_mean_motion_dot": 9.3e-07,
        "meta_mean_motion_ddot": 0,
        "tle_line1": "1 12458U 81044A   25346.27885394  .00000093  00000+0  19758-3 0  9997",
        "tle_line2": "2 12458  89.8524  91.3916 0015896 105.1318 319.5804 13.23278507151808"
      },
      "geometry": {
        "type": "Point",
        "coordinates": [
          88.33642031217865,
          -87.21991003852371
        ]
      }
    }
  ]
}